#dP2024  1 14 12  0  0.00000000      96 __u+U IGS20 EXT  IAC
## 2297  43200.00000000   900.00000000 60323 0.5000000000000
+  119   C06C07C08C09C10C11C12C13C14C16C19C20C21C22C23C24C25
+        C26C27C28C29C30C32C33C34C35C36C37C38C39C40C41C42C43
+        C44C45C46E02E03E04E05E07E08E09E10E11E12E13E14E15E18
+        E19E21E24E25E26E27E30E31E33E34E36G01G02G03G04G05G06
+        G07G08G09G10G11G12G13G14G15G16G17G18G19G20G21G22G23
+        G24G25G26G28G29G30G31G32J02J03J04R01R02R03R04R05R07
+        R08R09R11R12R13R14R15R16R17R18R19R20R21R22R24R25R26
++        10  8 10  9  9  7  8  8  8 10  9  9  8  8  7  8  9
++         9  8  8  9  8  8  7  7 10  9  8 11 11  9  9  9  9
++         6  9  9  8  7  7  8  8  7  7  6  8  6  7  7  6  8
++         7  8  7  7  6  8  8  8  6  7  7  7  7  8  7  7  7
++         7  7  8  7  7  7  7  8  7  7  8  7  6  7  6  6  8
++         7  7  7  6  7  7  7  7  9 10 11 10  8  7  8  9  7
++         8  6  8  9  8  8  7  8  7  7 10  7  8  9  9  8 12
%c M  cc GPS ccc cccc cccc cccc cccc ccccc ccccc ccccc ccccc
%c cc cc ccc ccc cccc cccc cccc cccc ccccc ccccc ccccc ccccc
%f  0.0000000  0.000000000  0.00000000000  0.000000000000000
%f  0.0000000  0.000000000  0.00000000000  0.000000000000000
%i    0    0    0    0      0      0      0      0         0
%i    0    0    0    0      0      0      0      0         0
/* IAC                                ULTRA-RAPID PREDICTION
/* S/V CLOCKS ARE ALIGNED TO GNSS TIME                      
/* G:C1WC2W R:C1PC2P E:C1XC5X C:C2IC6I J:C1CC2S             
/* PCV:IGS20_2290 OL/AL:FES2004  NONE     YN ORB:CoN CLK:CoN
*  2024 01 14 16 30  0.00000000
PC06 -16569.872710  24817.039145 -29866.373506     47.743588
PC07  -9816.609512  40850.351110  -1577.231567   -636.920452
PC08   2459.854185  28264.242397  31270.815137    112.795578
PC09  -5733.353425  24712.999044 -33328.104635   -352.276240
PC10  -4488.003310  41426.825928   4351.513870    126.138686
PC11  -8422.089005 -12961.893569 -23158.960490    357.921132
PC12  11703.969599 -18763.472513 -16974.786697    796.521745
PC13   8374.122110  31783.064115  26744.143247    407.374871
PC14  -7868.099355 -23784.445839  12363.467360    -33.900971
PC16 -17115.924208  24252.235777 -29800.923011   -281.311310
PC19  12506.436366  16040.596399 -19073.084243   -938.026418
PC20   2930.986273  27221.755121  -5319.126282    -65.082981
PC21   9339.695229 -22895.035602 -12939.358170   -964.292237
PC22  15472.743958  -5038.887383 -22674.548895   -147.916736
PC23 -24297.167006  -3573.414693 -13251.613084   -790.433728
PC24  -7258.641632 -19832.234607  18204.189654    789.197962
PC25 -22913.734341 -15635.156125   2916.768043    301.743998
PC26  11157.923506 -12239.226779  22440.674742   -234.659533
PC27 -18925.892579  17965.939533   9890.809204    256.672346
PC28 -25717.020885   9076.453893  -5914.087300    194.715403
PC29  17453.092618   6629.178756  20738.180191    228.105882
PC30  -1633.870963  18154.679751  21132.385011    -15.238352
PC32  -9242.737622  22867.708995  13061.288619   -553.695914
PC33 -12606.630228 -16076.948516  19019.128758   -943.174178
PC34    -60.023009 -17625.960115 -21638.134641    347.055326
PC35  25351.674821  -9978.300549   5934.807290    457.383100
PC36  22241.222156  16489.375682  -3538.426919    -52.925725
PC37 -11891.555669  11664.155514 -22385.562552   -931.894090
PC38  -6076.870276  24688.820659  33712.268212    130.431625
PC39 -23660.897548  24225.204170 -25208.623735     -6.644431
PC40 -16736.998763  38241.124339  -4746.048066    -52.071854
PC41 -15587.357146   4130.303644  22828.675091   -879.730400
PC42  -2029.957362 -27584.465972   3842.119509   -465.904911
PC43 -16791.700002  -7438.962061 -21024.046617     56.378617
PC44  18277.630340 -18692.104309  -9724.860247    353.650117
PC45  24157.104592   3429.468391  13556.279623    -63.034166
PC46   8308.568779  19943.295141 -17700.159232   -115.609229
PE02 -17621.080088    981.899205 -23770.354679     95.007117
PE03 -21817.932114  11797.256797  16144.911692    -86.973944
PE04  15862.765641 -24941.562200   1537.177006   -303.532130
PE05 -15008.161381  -8046.055497  24212.360134   4710.278118
PE07  -1000.071422  23539.501878 -17913.926666    -98.375145
PE08 -16235.523893  24730.717908   -905.465219   -207.929599
PE09   1187.527839 -23546.634785  17902.160085   -299.364398
PE10   4086.902315 -15655.740412 -24785.149732   -594.110826
PE11  -8363.645875 -15931.584582 -23509.051402   3280.029340
PE12  14556.568301 -13183.297326 -22135.698901   -862.535983
PE13   7554.256275  15928.632944  23786.361516    -19.904525
PE14  22142.433803 -19538.620291   6862.894387     10.400893
PE15 -15112.673110  12933.779489  21935.457237    -80.159983
PE18 -21033.730373   7842.156470 -13839.837707    210.366206
PE19  21618.369170  -9557.458557 -17808.634301   -813.858566
PE21  18937.626221  18255.104236  13576.317813   -573.867567
PE24  -8853.308499 -27717.849293   5330.636576   -541.821454
PE25 -18850.435536 -18555.718729 -13276.464880     -0.526232
PE26  25817.748529   9321.854668  11088.388483    339.158385
PE27   9244.006700  27688.811822  -4961.151644   -249.253271
PE30  -6094.742299  20507.645479 -20481.018275   -824.138847
PE31   5792.825267 -20682.893194  20362.243874    -13.763637
PE33  28759.334461  -2030.306546  -6702.277905      5.940124
PE34 -28587.326923   2459.009320   7264.751341    -88.966319
PE36 -25460.893468  -9558.950181 -11689.331629   -171.766096
PG01 -16129.076273 -12861.907115 -17278.606217    166.096817
PG02  -9291.557386 -13835.297661 -20240.265181   -500.943307
PG03 -11609.030644 -23959.983867     53.350957    125.823488
PG04  -4897.474845 -16787.622798  19961.875105    265.956884
PG05   4503.690991  23719.305759  10793.121229   -157.949585
PG06 -22100.101239   6856.640073  13201.392799    444.826293
PG07 -25442.942630  -6263.516376   6169.750455    -37.205904
PG08   1479.319190 -21879.619666 -14763.963169   -162.072931
PG09 -14581.351343  -5258.351387  21489.593530     58.719384
PG10  15091.930788  -1947.562346 -21605.358177    -69.318658
PG11 -12259.100884  12459.664234  20008.152558   -539.692809
PG12   9855.251376  24706.259922   -127.789334   -467.834251
PG13 -11929.152877  22036.876582  -8666.748264    615.804807
PG14 -16975.745725  -1943.549072 -20355.346794    298.546256
PG15   1371.555167  22287.701991 -14710.293093    117.191977
PG16   3304.105633 -21049.516164  15229.557895   -384.223342
PG17 -19675.137884   8166.467476 -15526.545128    719.880361
PG18  25807.487082   5192.635966   4225.780381   -531.966689
PG19 -20183.248680  14695.210567  -8708.079349    426.488620
PG20  -5423.445164  16779.294747  19969.618017    391.552105
PG21  -4818.390721 -14698.211022 -21196.799513    138.413163
PG22 -13560.596688   6464.087980 -21480.677151     48.331335
PG23  18048.837167  10878.452318 -16261.267836    135.291775
PG24   7875.640688  15212.681374 -20790.766629   -413.725503
PG25  16828.006878  18220.020747   9532.125438    485.236982
PG26   9716.779112 -13533.199078  20472.004750    200.355665
PG28  23629.194210  -6324.055630  10317.711282    -98.649239
PG29  13083.169576   7415.217187  21851.575937   -608.692655
PG30 -26248.030613   1423.404150  -4581.501007   -445.492997
PG31  17531.226145 -10464.479166  16991.837122   -227.296065
PG32  19232.953745 -11950.412278 -13515.269631   -605.020742
PJ02 -20979.124712  24066.031940 -22888.702908     -1.172301
PJ03 -29142.254854  26583.297035  19869.289671     -0.161512
PJ04 -26955.603053  29786.472665  18639.664840     76.870250
PR01   7523.260119  13198.066991 -20486.817317     74.576316
PR02  11669.615875  -5428.170985 -21964.034416    -22.386057
PR03   9513.154938 -21065.852139 -10669.724808     92.701803
PR04   2438.610570 -24625.957769   6178.148736    219.310728
PR05  -6032.879821 -15011.498846  19722.891850    125.340353
PR07  -9322.623734  21592.610581   9986.080778     73.573158
PR08  -2188.885643  24643.326187  -6233.873266    -74.012005
PR09 -18883.292599  -5240.118616 -16361.642398    164.348403
PR11   7142.251535  17185.660797 -17432.115265   -226.127442
PR12  19189.007277  16820.392034    154.748238     35.614921
PR13  19451.124181   7403.545113  14731.235071    -43.276943
PR14   7323.162633  -8418.482626  22941.921759     25.945773
PR15  -8169.813549 -17760.298655  16398.250999     83.111065
PR16 -19185.018194 -16835.138887    180.990369     22.460869
PR17  18957.901453 -11967.738062 -12186.770746     52.334416
PR18   3834.633219 -11720.351109 -22298.450272    122.111330
PR19 -11617.039771  -6786.351264 -21665.150978   -262.036879
PR20 -24480.790906   3967.336118  -6051.089468   -106.752649
PR21 -18725.283530  11860.785189  12609.240264    -68.891317
PR22  -2993.320536  11834.193059  22430.592169    103.148160
PR24  24394.313664  -5101.449820   5487.914257    -39.862879
PR25 -19286.645938  11348.846264  12236.745338     36.761598
PR26  -2417.212058  24779.939410  -5484.020107   -203.518423
EOF
